HORUS 2                 
1 55844U 23032A   26203.92101571  .00005873  00000+0  24973-3 0  9995
2 55844  97.3519 278.6013 0001592 135.2346 224.9020 15.23401746186928
GLOBAL-19               
1 55982U 23041B   26203.80459278  .00016632  00000+0  42841-3 0  9994
2 55982  42.0029 354.0544 0010442 265.5834  94.3813 15.38839448187419
ION SCV-010             
1 56192U 23054Q   26203.95479851  .00004846  00000+0  18806-3 0  9995
2 56192  97.3731  92.9974 0014586  80.0930 280.1954 15.26474431181656
TELEOS-2                
1 56310U 23057C   26203.88114766  .00005656  00000+0  42621-3 0  9995
2 56310   9.9894 304.2923 0000854 279.1776  80.8341 14.96417216178152
SNIPE 4                 
1 56744U 23072B   26203.94648052  .00024476  00000+0  54434-3 0  9996
2 56744  97.5230  51.1161 0005552 177.2332 182.8948 15.43638313175629
SNIPE 2                 
1 56745U 23072C   26203.94504627  .00033524  00000+0  62925-3 0  9994
2 56745  97.5219  54.4174 0003969 199.1496 160.9605 15.48547055175771
2023-072G               
1 56749U 23072G   26203.92168319  .00035715  00000+0  58321-3 0  9999
2 56749  97.4880  53.2409 0003163 180.3841 179.7410 15.52487367176001
GEISAT PRECURSOR        
1 56934U 23084C   26203.94492913  .00007896  00000+0  23431-3 0  9993
2 56934  97.6261 346.0959 0005147 199.1232 160.9819 15.35088822173018
BLACKJACK ACES-3        
1 56950U 23084U   26203.81654545  .00005241  00000+0  25500-3 0  9999
2 56950  97.6250 339.2949 0001380 187.6817 172.4396 15.18841706172570
BLACKJACK ACES-2        
1 56955U 23084Z   26203.82273029  .00006243  00000+0  30335-3 0  9994
2 56955  97.6247 339.3842 0002029 129.9669 230.1743 15.18802627172587
BLACKJACK ACES-1        
1 56956U 23084AA  26203.81018598  .00006660  00000+0  32334-3 0  9996
2 56956  97.6236 339.1424 0002251 110.2021 249.9455 15.18806864122302
ION SCV-011             
1 56957U 23084AB  26203.47112145  .00005049  00000+0  18156-3 0  9998
2 56957  98.1386  34.0290 0005769 274.7592  85.2987 15.29146912171200
GHOST-3                 
1 56958U 23084AC  26202.99528073  .00019451  00000+0  36103-3 0  9990
2 56958  97.6255 353.4713 0007191 162.6635 197.4862 15.48962054173408
AFR-1                   
1 56964U 23084AJ  26203.90642422  .00005042  00000+0  18261-3 0  9990
2 56964  97.6313 341.4734 0009834 205.2440 154.8320 15.28826281172688
METEOR-M2 3             
1 57166U 23091A   26203.93220137 -.00000021  00000+0  97437-5 0  9998
2 57166  98.6063 258.1751 0005052  73.0449 287.1284 14.24049323159602
UMKA 1 (RS40S)          
1 57172U 23091G   26203.88234927  .00005884  00000+0  26660-3 0  9990
2 57172  97.5030 262.4467 0012238   3.3236 356.8079 15.21181614169433
2023-091H               
1 57173U 23091H   26203.91529255  .00012991  00000+0  45850-3 0  9995
2 57173  97.5029 267.4103 0008751 357.9403   2.1799 15.29334591169761
2023-091J               
1 57174U 23091J   26203.87703147  .00004048  00000+0  22519-3 0  9996
2 57174  97.5037 256.4652 0013799  31.9331 328.2734 15.14151333169031
CUBEBEL 2 (EU11S)       
1 57175U 23091K   26203.90272955  .00014590  00000+0  50475-3 0  9994
2 57175  97.5031 267.4551 0008723 359.2052   0.9173 15.29959172169767
SITRO-AIS 5 (KATYS)     
1 57176U 23091L   26203.91356086  .00013808  00000+0  47435-3 0  9997
2 57176  97.5041 268.1676 0009864 344.0563  16.0365 15.30190314169804
ZORKIY-2M 1             
1 57177U 23091M   26203.93186982  .00007316  00000+0  32929-3 0  9995
2 57177  97.5071 262.7894 0012604 359.6331   0.4893 15.21318657169435
CUBESX-HSE 3 (RS42S)    
1 57178U 23091N   26203.91001795  .00014707  00000+0  47729-3 0  9998
2 57178  97.5072 269.9655 0008961 332.4604  27.6161 15.32023403169897
MONITOR-3 (RS58S)       
1 57180U 23091Q   26203.88440383  .00011568  00000+0  41928-3 0  9994
2 57180  97.5063 267.6047 0010210 341.4378  18.6487 15.28479681169741
MONITOR-4 (RS57S)       
1 57182U 23091S   26203.92692542  .00012210  00000+0  44117-3 0  9995
2 57182  97.5057 267.6206 0010210 341.4648  18.6218 15.28568837169758
MONITOR-2 (RS39S)       
1 57184U 23091U   26203.88341599  .00004633  00000+0  22310-3 0  9996
2 57184  97.5052 261.9381 0010625 357.6795   2.4388 15.19203036169372
SVYATOBOR 1 (RS60S)     
1 57187U 23091X   26203.90644438  .00009881  00000+0  37351-3 0  9991
2 57187  97.5069 267.9305 0007976 335.6311  24.4549 15.27155425169763
HORS 1                  
1 57188U 23091Y   26203.88931868  .00009592  00000+0  36139-3 0  9997
2 57188  97.5047 267.6713 0007457 336.0011  24.0879 15.27275586169769
VIZARD-METEO (RS38S)    
1 57189U 23091Z   26203.89960042  .00019575  00000+0  54124-3 0  9991
2 57189  97.5072 274.1242 0005190 305.7013  54.3748 15.37054578170170
SITRO-AIS 6 (CHIRKIN)   
1 57192U 23091AC  26203.91090009  .00011274  00000+0  43336-3 0  9996
2 57192  97.5049 267.0910 0010371 348.8819  11.2188 15.26540596169738
SITRO-AIS 8 (ANOKHIN)   
1 57193U 23091AD  26203.86648497  .00015981  00000+0  50272-3 0  9997
2 57193  97.5036 269.8579 0008769 338.7560  21.3317 15.33005548169912
