OBJECT_NAME,OBJECT_ID,EPOCH,MEAN_MOTION,ECCENTRICITY,INCLINATION,RA_OF_ASC_NODE,ARG_OF_PERICENTER,MEAN_ANOMALY,EPHEMERIS_TYPE,CLASSIFICATION_TYPE,NORAD_CAT_ID,ELEMENT_SET_NO,REV_AT_EPOCH,BSTAR,MEAN_MOTION_DOT,MEAN_MOTION_DDOT
HORUS 2,2023-032A,2026-07-22T22:06:15.757344,15.23401746,.00015927,97.3519,278.6013,135.2346,224.9020,0,U,55844,999,18692,.24972735E-3,.5873E-4,0
GLOBAL-19,2023-041B,2026-07-22T19:18:36.816192,15.38839448,.00104422,42.0029,354.0544,265.5834,94.3813,0,U,55982,999,18741,.42841398E-3,.16632E-3,0
ION SCV-010,2023-054Q,2026-07-22T22:54:54.591264,15.26474431,.00145868,97.3731,92.9974,80.0930,280.1954,0,U,56192,999,18165,.18805881E-3,.4846E-4,0
TELEOS-2,2023-057C,2026-07-22T21:08:51.157824,14.96417216,.00008545,9.9894,304.2923,279.1776,80.8341,0,U,56310,999,17815,.42621143E-3,.5656E-4,0
SNIPE 4,2023-072B,2026-07-22T22:42:55.916928,15.43638313,.00055529,97.5230,51.1161,177.2332,182.8948,0,U,56744,999,17562,.54434225E-3,.24476E-3,0
SNIPE 2,2023-072C,2026-07-22T22:40:51.997728,15.48547055,.00039695,97.5219,54.4174,199.1496,160.9605,0,U,56745,999,17577,.62925221E-3,.33524E-3,0
2023-072G,2023-072G,2026-07-22T22:07:13.427616,15.52487367,.00031634,97.4880,53.2409,180.3841,179.7410,0,U,56749,999,17600,.58320575E-3,.35715E-3,0
GEISAT PRECURSOR,2023-084C,2026-07-22T22:40:41.876832,15.35088822,.00051477,97.6261,346.0959,199.1232,160.9819,0,U,56934,999,17301,.2343136E-3,.7896E-4,0
BLACKJACK ACES-3,2023-084U,2026-07-22T19:35:49.526880,15.18841706,.00013803,97.6250,339.2949,187.6817,172.4396,0,U,56950,999,17257,.25499668E-3,.5241E-4,0
BLACKJACK ACES-2,2023-084Z,2026-07-22T19:44:43.897056,15.18802627,.00020298,97.6247,339.3842,129.9669,230.1743,0,U,56955,999,17258,.30335271E-3,.6243E-4,0
BLACKJACK ACES-1,2023-084AA,2026-07-22T19:26:40.068672,15.18806864,.00022512,97.6236,339.1424,110.2021,249.9455,0,U,56956,999,12230,.3233363E-3,.666E-4,0
ION SCV-011,2023-084AB,2026-07-22T11:18:24.893280,15.29146912,.00057691,98.1386,34.0290,274.7592,85.2987,0,U,56957,999,17120,.181562E-3,.5049E-4,0
GHOST-3,2023-084AC,2026-07-21T23:53:12.255072,15.48962054,.00071914,97.6255,353.4713,162.6635,197.4862,0,U,56958,999,17340,.36103161E-3,.19451E-3,0
AFR-1,2023-084AJ,2026-07-22T21:45:15.052608,15.28826281,.00098348,97.6313,341.4734,205.2440,154.8320,0,U,56964,999,17268,.18260877E-3,.5042E-4,0
METEOR-M2 3,2023-091A,2026-07-22T22:22:22.198368,14.24049323,.00050522,98.6063,258.1751,73.0449,287.1284,0,U,57166,999,15960,.9743698E-5,-.21E-6,0
UMKA 1 (RS40S),2023-091G,2026-07-22T21:10:34.976928,15.21181614,.00122385,97.5030,262.4467,3.3236,356.8079,0,U,57172,999,16943,.266595E-3,.5884E-4,0
2023-091H,2023-091H,2026-07-22T21:58:01.276320,15.29334591,.00087516,97.5029,267.4103,357.9403,2.1799,0,U,57173,999,16976,.45850146E-3,.12991E-3,0
2023-091J,2023-091J,2026-07-22T21:02:55.519008,15.14151333,.00137996,97.5037,256.4652,31.9331,328.2734,0,U,57174,999,16903,.22519356E-3,.4048E-4,0
CUBEBEL 2 (EU11S),2023-091K,2026-07-22T21:39:55.833120,15.29959172,.00087232,97.5031,267.4551,359.2052,0.9173,0,U,57175,999,16976,.50475141E-3,.1459E-3,0
SITRO-AIS 5 (KATYS),2023-091L,2026-07-22T21:55:31.658304,15.30190314,.00098644,97.5041,268.1676,344.0563,16.0365,0,U,57176,999,16980,.47435381E-3,.13808E-3,0
ZORKIY-2M 1,2023-091M,2026-07-22T22:21:53.552448,15.21318657,.00126041,97.5071,262.7894,359.6331,0.4893,0,U,57177,999,16943,.32929421E-3,.7316E-4,0
CUBESX-HSE 3 (RS42S),2023-091N,2026-07-22T21:50:25.550880,15.32023403,.00089615,97.5072,269.9655,332.4604,27.6161,0,U,57178,999,16989,.47729478E-3,.14707E-3,0
MONITOR-3 (RS58S),2023-091Q,2026-07-22T21:13:32.490912,15.28479681,.00102102,97.5063,267.6047,341.4378,18.6487,0,U,57180,999,16974,.41927966E-3,.11568E-3,0
MONITOR-4 (RS57S),2023-091S,2026-07-22T22:14:46.356288,15.28568837,.00102109,97.5057,267.6206,341.4648,18.6218,0,U,57182,999,16975,.44116923E-3,.1221E-3,0
MONITOR-2 (RS39S),2023-091U,2026-07-22T21:12:07.141536,15.19203036,.00106253,97.5052,261.9381,357.6795,2.4388,0,U,57184,999,16937,.22310215E-3,.4633E-4,0
SVYATOBOR 1 (RS60S),2023-091X,2026-07-22T21:45:16.794432,15.27155425,.00079766,97.5069,267.9305,335.6311,24.4549,0,U,57187,999,16976,.3735134E-3,.9881E-4,0
HORS 1,2023-091Y,2026-07-22T21:20:37.133952,15.27275586,.00074571,97.5047,267.6713,336.0011,24.0879,0,U,57188,999,16976,.36138821E-3,.9592E-4,0
VIZARD-METEO (RS38S),2023-091Z,2026-07-22T21:35:25.476288,15.37054578,.00051905,97.5072,274.1242,305.7013,54.3748,0,U,57189,999,17017,.54124081E-3,.19575E-3,0
SITRO-AIS 6 (CHIRKIN),2023-091AC,2026-07-22T21:51:41.767776,15.26540596,.00103715,97.5049,267.0910,348.8819,11.2188,0,U,57192,999,16973,.43336099E-3,.11274E-3,0
SITRO-AIS 8 (ANOKHIN),2023-091AD,2026-07-22T20:47:44.301408,15.33005548,.00087698,97.5036,269.8579,338.7560,21.3317,0,U,57193,999,16991,.50272157E-3,.15981E-3,0
